{
  "type": "FeatureCollection",
  "features": [
    {
      "type": "Feature",
      "properties": {
        "norad_id": 44334,
        "name": "EUTELSAT 7C",
        "group": "eutelsat",
        "lat": 0.007740962443071417,
        "lon": -159.9789528689598,
        "alt_km": 35778.120179244,
        "timestamp": "2025-12-19T06:59:43.575389+00:00",
        "meta_object_name": "EUTELSAT 7C",
        "meta_object_id": "2019-034B",
        "meta_epoch": "2025-12-18T15:02:24.148896",
        "meta_mean_motion": 1.00271261,
        "meta_eccentricity": 0.00030271,
        "meta_inclination": 0.073,
        "meta_ra_of_asc_node": 178.0783,
        "meta_arg_of_pericenter": 72.8613,
        "meta_mean_anomaly": 69.1342,
        "meta_ephemeris_type": 0,
        "meta_classification_type": "U",
        "meta_norad_cat_id": 44334,
        "meta_element_set_no": 999,
        "meta_rev_at_epoch": 502,
        "meta_bstar": 0,
        "meta_mean_motion_dot": 7.3e-07,
        "meta_mean_motion_ddot": 0,
        "tle_line1": "1 44334U 19034B   25352.62666839  .00000073  00000+0  00000+0 0  9996",
        "tle_line2": "2 44334   0.0730 178.0783 0003027  72.8613  69.1342  1.00271261  5025"
      },
      "geometry": {
        "type": "Point",
        "coordinates": [
          -159.9789528689598,
          0.007740962443071417
        ]
      }
    },
    {
      "type": "Feature",
      "properties": {
        "norad_id": 44624,
        "name": "EUTELSAT 5 WEST B",
        "group": "eutelsat",
        "lat": -0.051074868690297925,
        "lon": -171.96390367850935,
        "alt_km": 35784.00487936328,
        "timestamp": "2025-12-19T06:59:43.575401+00:00",
        "meta_object_name": "EUTELSAT 5 WEST B",
        "meta_object_id": "2019-067A",
        "meta_epoch": "2025-12-18T14:59:01.972032",
        "meta_mean_motion": 1.00271288,
        "meta_eccentricity": 0.00030017,
        "meta_inclination": 0.0695,
        "meta_ra_of_asc_node": 331.3253,
        "meta_arg_of_pericenter": 296.7511,
        "meta_mean_anomaly": 39.1751,
        "meta_ephemeris_type": 0,
        "meta_classification_type": "U",
        "meta_norad_cat_id": 44624,
        "meta_element_set_no": 999,
        "meta_rev_at_epoch": 2262,
        "meta_bstar": 0,
        "meta_mean_motion_dot": -1.7e-07,
        "meta_mean_motion_ddot": 0,
        "tle_line1": "1 44624U 19067A   25352.62432838 -.00000017  00000+0  00000+0 0  9993",
        "tle_line2": "2 44624   0.0695 331.3253 0003001 296.7511  39.1751  1.00271288 22624"
      },
      "geometry": {
        "type": "Point",
        "coordinates": [
          -171.96390367850935,
          -0.051074868690297925
        ]
      }
    },
    {
      "type": "Feature",
      "properties": {
        "norad_id": 45027,
        "name": "EUTELSAT KONNECT",
        "group": "eutelsat",
        "lat": 0.05263763435081638,
        "lon": -159.7505551077144,
        "alt_km": 35785.57257880719,
        "timestamp": "2025-12-19T06:59:43.575413+00:00",
        "meta_object_name": "EUTELSAT KONNECT",
        "meta_object_id": "2020-005B",
        "meta_epoch": "2025-12-18T15:02:31.637184",
        "meta_mean_motion": 1.00271854,
        "meta_eccentricity": 0.00013062,
        "meta_inclination": 0.0731,
        "meta_ra_of_asc_node": 95.4615,
        "meta_arg_of_pericenter": 190.4779,
        "meta_mean_anomaly": 34.3804,
        "meta_ephemeris_type": 0,
        "meta_classification_type": "U",
        "meta_norad_cat_id": 45027,
        "meta_element_set_no": 999,
        "meta_rev_at_epoch": 2252,
        "meta_bstar": 0,
        "meta_mean_motion_dot": 7.5e-07,
        "meta_mean_motion_ddot": 0,
        "tle_line1": "1 45027U 20005B   25352.62675506  .00000075  00000+0  00000+0 0  9999",
        "tle_line2": "2 45027   0.0731  95.4615 0001306 190.4779  34.3804  1.00271854 22529"
      },
      "geometry": {
        "type": "Point",
        "coordinates": [
          -159.7505551077144,
          0.05263763435081638
        ]
      }
    },
    {
      "type": "Feature",
      "properties": {
        "norad_id": 49056,
        "name": "EUTELSAT QUANTUM",
        "group": "eutelsat",
        "lat": -0.030895968036289825,
        "lon": -119.256444100488,
        "alt_km": 35774.967699973844,
        "timestamp": "2025-12-19T06:59:43.575440+00:00",
        "meta_object_name": "EUTELSAT QUANTUM",
        "meta_object_id": "2021-069B",
        "meta_epoch": "2025-12-18T20:33:38.880864",
        "meta_mean_motion": 1.0027143,
        "meta_eccentricity": 0.00033292,
        "meta_inclination": 0.0162,
        "meta_ra_of_asc_node": 23.3718,
        "meta_arg_of_pericenter": 255.1495,
        "meta_mean_anomaly": 165.3089,
        "meta_ephemeris_type": 0,
        "meta_classification_type": "U",
        "meta_norad_cat_id": 49056,
        "meta_element_set_no": 999,
        "meta_rev_at_epoch": 1612,
        "meta_bstar": 0,
        "meta_mean_motion_dot": 1.51e-06,
        "meta_mean_motion_ddot": 0,
        "tle_line1": "1 49056U 21069B   25352.85670001  .00000151  00000+0  00000+0 0  9991",
        "tle_line2": "2 49056   0.0162  23.3718 0003329 255.1495 165.3089  1.00271430 16127"
      },
      "geometry": {
        "type": "Point",
        "coordinates": [
          -119.256444100488,
          -0.030895968036289825
        ]
      }
    },
    {
      "type": "Feature",
      "properties": {
        "norad_id": 53765,
        "name": "EUTELSAT KONNECT VHTS",
        "group": "eutelsat",
        "lat": 0.046120711654563794,
        "lon": -164.22297340282844,
        "alt_km": 35780.14787323152,
        "timestamp": "2025-12-19T06:59:43.575453+00:00",
        "meta_object_name": "EUTELSAT KONNECT VHTS",
        "meta_object_id": "2022-110A",
        "meta_epoch": "2025-12-18T21:13:38.602848",
        "meta_mean_motion": 1.0026971,
        "meta_eccentricity": 0.00022906,
        "meta_inclination": 0.0646,
        "meta_ra_of_asc_node": 100.662,
        "meta_arg_of_pericenter": 142.8901,
        "meta_mean_anomaly": 165.3364,
        "meta_ephemeris_type": 0,
        "meta_classification_type": "U",
        "meta_norad_cat_id": 53765,
        "meta_element_set_no": 999,
        "meta_rev_at_epoch": 501,
        "meta_bstar": 0,
        "meta_mean_motion_dot": 4.2e-07,
        "meta_mean_motion_ddot": 0,
        "tle_line1": "1 53765U 22110A   25352.88447457  .00000042  00000+0  00000+0 0  9990",
        "tle_line2": "2 53765   0.0646 100.6620 0002290 142.8901 165.3364  1.00269710  5017"
      },
      "geometry": {
        "type": "Point",
        "coordinates": [
          -164.22297340282844,
          0.046120711654563794
        ]
      }
    },
    {
      "type": "Feature",
      "properties": {
        "norad_id": 54048,
        "name": "EUTELSAT HOTBIRD 13F",
        "group": "eutelsat",
        "lat": -0.0633791020258131,
        "lon": -153.95481605272374,
        "alt_km": 35794.886319106496,
        "timestamp": "2025-12-19T06:59:43.575464+00:00",
        "meta_object_name": "EUTELSAT HOTBIRD 13F",
        "meta_object_id": "2022-134A",
        "meta_epoch": "2025-12-18T15:04:08.982336",
        "meta_mean_motion": 1.00271613,
        "meta_eccentricity": 0.00022524,
        "meta_inclination": 0.0514,
        "meta_ra_of_asc_node": 293.3957,
        "meta_arg_of_pericenter": 71.3583,
        "meta_mean_anomaly": 321.7634,
        "meta_ephemeris_type": 0,
        "meta_classification_type": "U",
        "meta_norad_cat_id": 54048,
        "meta_element_set_no": 999,
        "meta_rev_at_epoch": 1156,
        "meta_bstar": 0,
        "meta_mean_motion_dot": 1.12e-06,
        "meta_mean_motion_ddot": 0,
        "tle_line1": "1 54048U 22134A   25352.62788174  .00000112  00000+0  00000+0 0  9995",
        "tle_line2": "2 54048   0.0514 293.3957 0002252  71.3583 321.7634  1.00271613 11569"
      },
      "geometry": {
        "type": "Point",
        "coordinates": [
          -153.95481605272374,
          -0.0633791020258131
        ]
      }
    },
    {
      "type": "Feature",
      "properties": {
        "norad_id": 54225,
        "name": "EUTELSAT HOTBIRD 13G",
        "group": "eutelsat",
        "lat": -0.03526883271066579,
        "lon": -153.93731262646318,
        "alt_km": 35779.37340199967,
        "timestamp": "2025-12-19T06:59:43.575476+00:00",
        "meta_object_name": "EUTELSAT HOTBIRD 13G",
        "meta_object_id": "2022-146A",
        "meta_epoch": "2025-12-18T15:04:08.982336",
        "meta_mean_motion": 1.00271439,
        "meta_eccentricity": 0.00019057,
        "meta_inclination": 0.052,
        "meta_ra_of_asc_node": 231.39,
        "meta_arg_of_pericenter": 302.2873,
        "meta_mean_anomaly": 152.837,
        "meta_ephemeris_type": 0,
        "meta_classification_type": "U",
        "meta_norad_cat_id": 54225,
        "meta_element_set_no": 999,
        "meta_rev_at_epoch": 565,
        "meta_bstar": 0,
        "meta_mean_motion_dot": 1.12e-06,
        "meta_mean_motion_ddot": 0,
        "tle_line1": "1 54225U 22146A   25352.62788174  .00000112  00000+0  00000+0 0  9995",
        "tle_line2": "2 54225   0.0520 231.3900 0001905 302.2873 152.8370  1.00271439  5654"
      },
      "geometry": {
        "type": "Point",
        "coordinates": [
          -153.93731262646318,
          -0.03526883271066579
        ]
      }
    }
  ]
}